start=new Date('2022-09-20T00:00:00.000Z').valueOf();
sats=[{"ECCENTRICITY":"0.00013670","ARG_OF_PERICENTER":"81.9356","RA_OF_ASC_NODE":"30.4009","OBJECT_TYPE":"PAYLOAD","TIME_SYSTEM":"UTC","SITE":"AFETR","REF_FRAME":"TEME","SEMIMAJOR_AXIS":"6925.368","TLE_LINE2":"2 48326  53.0555  30.4009 0001367  81.9356 278.1788 15.06393573 77628","MEAN_ANOMALY":"278.1788","MEAN_MOTION_DDOT":"0.0000000000000","EPOCH":"2022-09-19T11:17:10.884768","CENTER_NAME":"EARTH","GP_ID":"213006600","LAUNCH_DATE":"2021-04-29","PERIAPSIS":"546.287","EPHEMERIS_TYPE":"0","TLE_LINE1":"1 48326U 21036BC  22262.47026487  .00000719  00000-0  67180-4 0  9990","INCLINATION":"53.0555","FILE":"3578024","APOAPSIS":"548.180","NORAD_CAT_ID":"48326","RCS_SIZE":"MEDIUM","OBJECT_NAME":"STARLINK-2498","ELEMENT_SET_NO":"999","BSTAR":"0.00006718000000","COUNTRY_CODE":"US","PERIOD":"95.593","MEAN_MOTION":"15.06393573","MEAN_ELEMENT_THEORY":"SGP4","CLASSIFICATION_TYPE":"U","DECAY_DATE":null,"REV_AT_EPOCH":"7762","MEAN_MOTION_DOT":"0.00000719","OBJECT_ID":"2021-036BC"},{"REV_AT_EPOCH":"7702","DECAY_DATE":null,"MEAN_ELEMENT_THEORY":"SGP4","CLASSIFICATION_TYPE":"U","PERIOD":"95.592","MEAN_MOTION":"15.06400004","OBJECT_ID":"2021-036BD","MEAN_MOTION_DOT":"0.00002079","APOAPSIS":"548.084","NORAD_CAT_ID":"48327","INCLINATION":"53.0562","FILE":"3577889","COUNTRY_CODE":"US","BSTAR":"0.00015844000000","ELEMENT_SET_NO":"999","RCS_SIZE":"LARGE","OBJECT_NAME":"STARLINK-2502","GP_ID":"212999852","LAUNCH_DATE":"2021-04-29","PERIAPSIS":"546.343","CENTER_NAME":"EARTH","EPOCH":"2022-09-19T09:36:19.647360","TLE_LINE1":"1 48327U 21036BD  22262.40022740  .00002079  00000-0  15844-3 0  9992","EPHEMERIS_TYPE":"0","REF_FRAME":"TEME","MEAN_ANOMALY":"284.5293","TLE_LINE2":"2 48327  53.0562  30.7121 0001257  75.5835 284.5293 15.06400004 77028","SEMIMAJOR_AXIS":"6925.349","TIME_SYSTEM":"UTC","SITE":"AFETR","OBJECT_TYPE":"PAYLOAD","RA_OF_ASC_NODE":"30.7121","ECCENTRICITY":"0.00012570","ARG_OF_PERICENTER":"75.5835","MEAN_MOTION_DDOT":"0.0000000000000"},{"MEAN_MOTION_DDOT":"0.0000000000000","OBJECT_TYPE":"PAYLOAD","RA_OF_ASC_NODE":"28.9392","ARG_OF_PERICENTER":"77.0123","ECCENTRICITY":"0.00012540","MEAN_ANOMALY":"283.1006","TLE_LINE2":"2 48328  53.0554  28.9392 0001254  77.0123 283.1006 15.06398730 77088","SEMIMAJOR_AXIS":"6925.352","REF_FRAME":"TEME","SITE":"AFETR","TIME_SYSTEM":"UTC","EPHEMERIS_TYPE":"0","TLE_LINE1":"1 48328U 21036BE  22262.79368270  .00000812  00000-0  73383-4 0  9992","EPOCH":"2022-09-19T19:02:54.185280","PERIAPSIS":"546.349","LAUNCH_DATE":"2021-04-29","GP_ID":"213032119","CENTER_NAME":"EARTH","ELEMENT_SET_NO":"999","RCS_SIZE":"LARGE","OBJECT_NAME":"STARLINK-2504","COUNTRY_CODE":"US","BSTAR":"0.00007338300000","FILE":"3578162","INCLINATION":"53.0554","NORAD_CAT_ID":"48328","APOAPSIS":"548.086","MEAN_MOTION_DOT":"0.00000812","OBJECT_ID":"2021-036BE","MEAN_ELEMENT_THEORY":"SGP4","CLASSIFICATION_TYPE":"U","MEAN_MOTION":"15.06398730","PERIOD":"95.592","REV_AT_EPOCH":"7708","DECAY_DATE":null},{"MEAN_MOTION":"15.06387826","PERIOD":"95.593","CLASSIFICATION_TYPE":"U","MEAN_ELEMENT_THEORY":"SGP4","DECAY_DATE":null,"REV_AT_EPOCH":"7708","MEAN_MOTION_DOT":"0.00000454","OBJECT_ID":"2021-036BF","FILE":"3578162","INCLINATION":"53.0562","NORAD_CAT_ID":"48329","APOAPSIS":"548.289","RCS_SIZE":"LARGE","OBJECT_NAME":"STARLINK-2510","ELEMENT_SET_NO":"999","BSTAR":"0.00004940100000","COUNTRY_CODE":"US","EPOCH":"2022-09-19T18:58:57.940896","CENTER_NAME":"EARTH","PERIAPSIS":"546.213","LAUNCH_DATE":"2021-04-29","GP_ID":"213030867","EPHEMERIS_TYPE":"0","TLE_LINE1":"1 48329U 21036BF  22262.79094839  .00000454  00000-0  49401-4 0  9996","ECCENTRICITY":"0.00014990","ARG_OF_PERICENTER":"62.8813","RA_OF_ASC_NODE":"28.9498","OBJECT_TYPE":"PAYLOAD","SITE":"AFETR","TIME_SYSTEM":"UTC","MEAN_ANOMALY":"297.2329","TLE_LINE2":"2 48329  53.0562  28.9498 0001499  62.8813 297.2329 15.06387826 77082","SEMIMAJOR_AXIS":"6925.386","REF_FRAME":"TEME","MEAN_MOTION_DDOT":"0.0000000000000"},{"ELEMENT_SET_NO":"999","RCS_SIZE":"LARGE","OBJECT_NAME":"STARLINK-2501","BSTAR":"0.00008595000000","COUNTRY_CODE":"US","FILE":"3578162","INCLINATION":"53.0557","NORAD_CAT_ID":"48330","APOAPSIS":"548.052","MEAN_MOTION_DOT":"0.00000999","OBJECT_ID":"2021-036BG","MEAN_MOTION":"15.06403270","PERIOD":"95.592","CLASSIFICATION_TYPE":"U","MEAN_ELEMENT_THEORY":"SGP4","DECAY_DATE":null,"REV_AT_EPOCH":"7708","MEAN_MOTION_DDOT":"0.0000000000000","ARG_OF_PERICENTER":"79.7591","ECCENTRICITY":"0.00012250","OBJECT_TYPE":"PAYLOAD","RA_OF_ASC_NODE":"28.9697","SITE":"AFETR","TIME_SYSTEM":"UTC","TLE_LINE2":"2 48330  53.0557  28.9697 0001225  79.7591 280.3536 15.06403270 77081","SEMIMAJOR_AXIS":"6925.339","MEAN_ANOMALY":"280.3536","REF_FRAME":"TEME","EPHEMERIS_TYPE":"0","TLE_LINE1":"1 48330U 21036BG  22262.78725052  .00000999  00000-0  85950-4 0  9998","EPOCH":"2022-09-19T18:53:38.444928","CENTER_NAME":"EARTH","PERIAPSIS":"546.355","LAUNCH_DATE":"2021-04-29","GP_ID":"213031618"},{"TLE_LINE1":"1 48331U 21036BH  22262.71721992  .00002780  00000-0  20545-3 0  9999","EPHEMERIS_TYPE":"0","CENTER_NAME":"EARTH","PERIAPSIS":"546.094","GP_ID":"213031869","LAUNCH_DATE":"2021-04-29","EPOCH":"2022-09-19T17:12:47.801088","MEAN_MOTION_DDOT":"0.0000000000000","SITE":"AFETR","TIME_SYSTEM":"UTC","SEMIMAJOR_AXIS":"6925.355","TLE_LINE2":"2 48331  53.0567  29.2853 0001625  67.1011 293.0150 15.06398028 77079","MEAN_ANOMALY":"293.0150","REF_FRAME":"TEME","ECCENTRICITY":"0.00016250","ARG_OF_PERICENTER":"67.1011","OBJECT_TYPE":"PAYLOAD","RA_OF_ASC_NODE":"29.2853","OBJECT_ID":"2021-036BH","MEAN_MOTION_DOT":"0.00002780","DECAY_DATE":null,"REV_AT_EPOCH":"7707","MEAN_MOTION":"15.06398028","PERIOD":"95.592","MEAN_ELEMENT_THEORY":"SGP4","CLASSIFICATION_TYPE":"U","BSTAR":"0.00020545000000","COUNTRY_CODE":"US","RCS_SIZE":"LARGE","ELEMENT_SET_NO":"999","OBJECT_NAME":"STARLINK-2514","NORAD_CAT_ID":"48331","APOAPSIS":"548.345","FILE":"3578162","INCLINATION":"53.0567"},{"EPOCH":"2022-09-19T20:22:31.071936","PERIAPSIS":"546.209","LAUNCH_DATE":"2021-04-29","GP_ID":"213032620","CENTER_NAME":"EARTH","EPHEMERIS_TYPE":"0","TLE_LINE1":"1 48332U 21036BJ  22262.84897074  .00002390  00000-0  17928-3 0  9997","RA_OF_ASC_NODE":"28.6752","OBJECT_TYPE":"PAYLOAD","ARG_OF_PERICENTER":"63.5539","ECCENTRICITY":"0.00014370","TLE_LINE2":"2 48332  53.0550  28.6752 0001437  63.5539 296.5597 15.06403203 77096","MEAN_ANOMALY":"296.5597","SEMIMAJOR_AXIS":"6925.339","REF_FRAME":"TEME","SITE":"AFETR","TIME_SYSTEM":"UTC","MEAN_MOTION_DDOT":"0.0000000000000","MEAN_ELEMENT_THEORY":"SGP4","CLASSIFICATION_TYPE":"U","MEAN_MOTION":"15.06403203","PERIOD":"95.592","REV_AT_EPOCH":"7709","DECAY_DATE":null,"MEAN_MOTION_DOT":"0.00002390","OBJECT_ID":"2021-036BJ","FILE":"3578162","INCLINATION":"53.0550","NORAD_CAT_ID":"48332","APOAPSIS":"548.199","ELEMENT_SET_NO":"999","RCS_SIZE":"LARGE","OBJECT_NAME":"STARLINK-2511","COUNTRY_CODE":"US","BSTAR":"0.00017928000000"},{"MEAN_MOTION_DDOT":"0.0000000000000","TIME_SYSTEM":"UTC","SITE":"AFETR","REF_FRAME":"TEME","SEMIMAJOR_AXIS":"6925.334","TLE_LINE2":"2 48333  53.0573  29.0073 0001350  74.8615 285.2523 15.06404868 77088","MEAN_ANOMALY":"285.2523","ECCENTRICITY":"0.00013500","ARG_OF_PERICENTER":"74.8615","OBJECT_TYPE":"PAYLOAD","RA_OF_ASC_NODE":"29.0073","TLE_LINE1":"1 48333U 21036BK  22262.77619322 -.00000066  00000-0  14447-4 0  9991","EPHEMERIS_TYPE":"0","CENTER_NAME":"EARTH","GP_ID":"213031368","LAUNCH_DATE":"2021-04-29","PERIAPSIS":"546.264","EPOCH":"2022-09-19T18:37:43.094208","BSTAR":"0.00001444700000","COUNTRY_CODE":"US","OBJECT_NAME":"STARLINK-2518","RCS_SIZE":"LARGE","ELEMENT_SET_NO":"999","APOAPSIS":"548.134","NORAD_CAT_ID":"48333","INCLINATION":"53.0573","FILE":"3578162","OBJECT_ID":"2021-036BK","MEAN_MOTION_DOT":"-0.00000066","DECAY_DATE":null,"REV_AT_EPOCH":"7708","PERIOD":"95.592","MEAN_MOTION":"15.06404868","CLASSIFICATION_TYPE":"U","MEAN_ELEMENT_THEORY":"SGP4"},{"FILE":"3578162","INCLINATION":"53.0579","NORAD_CAT_ID":"48334","APOAPSIS":"548.235","RCS_SIZE":"LARGE","OBJECT_NAME":"STARLINK-2470","ELEMENT_SET_NO":"999","BSTAR":"0.00003005700000","COUNTRY_CODE":"US","MEAN_MOTION":"15.06398107","PERIOD":"95.592","CLASSIFICATION_TYPE":"U","MEAN_ELEMENT_THEORY":"SGP4","DECAY_DATE":null,"REV_AT_EPOCH":"7708","MEAN_MOTION_DOT":"0.00000166","OBJECT_ID":"2021-036BL","ECCENTRICITY":"0.00014670","ARG_OF_PERICENTER":"109.8976","RA_OF_ASC_NODE":"29.0201","OBJECT_TYPE":"PAYLOAD","SITE":"AFETR","TIME_SYSTEM":"UTC","SEMIMAJOR_AXIS":"6925.354","TLE_LINE2":"2 48334  53.0579  29.0201 0001467 109.8976 250.2171 15.06398107 77085","MEAN_ANOMALY":"250.2171","REF_FRAME":"TEME","MEAN_MOTION_DDOT":"0.0000000000000","EPOCH":"2022-09-19T18:32:24.876096","CENTER_NAME":"EARTH","PERIAPSIS":"546.203","LAUNCH_DATE":"2021-04-29","GP_ID":"213031118","EPHEMERIS_TYPE":"0","TLE_LINE1":"1 48334U 21036BL  22262.77251014  .00000166  00000-0  30057-4 0  9997"},{"INCLINATION":"53.0554","FILE":"3578162","APOAPSIS":"548.110","NORAD_CAT_ID":"48335","RCS_SIZE":"LARGE","ELEMENT_SET_NO":"999","OBJECT_NAME":"STARLINK-2441","COUNTRY_CODE":"US","BSTAR":"0.00002537900000","CLASSIFICATION_TYPE":"U","MEAN_ELEMENT_THEORY":"SGP4","PERIOD":"95.592","MEAN_MOTION":"15.06402317","REV_AT_EPOCH":"7708","DECAY_DATE":null,"MEAN_MOTION_DOT":"0.00000097","OBJECT_ID":"2021-036BM","RA_OF_ASC_NODE":"29.0556","OBJECT_TYPE":"PAYLOAD","ARG_OF_PERICENTER":"76.7879","ECCENTRICITY":"0.00013050","REF_FRAME":"TEME","TLE_LINE2":"2 48335  53.0554  29.0556 0001305  76.7879 283.3256 15.06402317 77087","SEMIMAJOR_AXIS":"6925.341","MEAN_ANOMALY":"283.3256","TIME_SYSTEM":"UTC","SITE":"AFETR","MEAN_MOTION_DDOT":"0.0000000000000","EPOCH":"2022-09-19T18:27:06.189696","LAUNCH_DATE":"2021-04-29","GP_ID":"213032370","PERIAPSIS":"546.303","CENTER_NAME":"EARTH","EPHEMERIS_TYPE":"0","TLE_LINE1":"1 48335U 21036BM  22262.76882164  .00000097  00000-0  25379-4 0  9997"}];
